{
  "type": "FeatureCollection",
  "features": [
    {
      "type": "Feature",
      "properties": {
        "norad_id": 37836,
        "name": "EUTELSAT 16A",
        "group": "eutelsat",
        "lat": -0.06211839738193435,
        "lon": -134.69876833781046,
        "alt_km": 35770.208089981264,
        "timestamp": "2025-12-24T07:45:05.870048+00:00",
        "meta_object_name": "EUTELSAT 16A",
        "meta_object_id": "2011-057A",
        "meta_epoch": "2025-12-23T21:46:02.317728",
        "meta_mean_motion": 1.00270679,
        "meta_eccentricity": 0.00058476,
        "meta_inclination": 0.0568,
        "meta_ra_of_asc_node": 346.0975,
        "meta_arg_of_pericenter": 288.5165,
        "meta_mean_anomaly": 160.5716,
        "meta_ephemeris_type": 0,
        "meta_classification_type": "U",
        "meta_norad_cat_id": 37836,
        "meta_element_set_no": 999,
        "meta_rev_at_epoch": 557,
        "meta_bstar": 0,
        "meta_mean_motion_dot": 1.25e-06,
        "meta_mean_motion_ddot": 0,
        "tle_line1": "1 37836U 11057A   25357.90697127  .00000125  00000+0  00000+0 0  9990",
        "tle_line2": "2 37836   0.0568 346.0975 0005847 288.5165 160.5716  1.00270679  5576"
      },
      "geometry": {
        "type": "Point",
        "coordinates": [
          -134.69876833781046,
          -0.06211839738193435
        ]
      }
    },
    {
      "type": "Feature",
      "properties": {
        "norad_id": 38992,
        "name": "EUTELSAT 21B",
        "group": "eutelsat",
        "lat": -0.07423735309466144,
        "lon": -129.08136656384713,
        "alt_km": 35777.0009746907,
        "timestamp": "2025-12-24T07:45:05.870059+00:00",
        "meta_object_name": "EUTELSAT 21B",
        "meta_object_id": "2012-062B",
        "meta_epoch": "2025-12-23T21:01:38.691264",
        "meta_mean_motion": 1.00270573,
        "meta_eccentricity": 0.00032507,
        "meta_inclination": 0.0662,
        "meta_ra_of_asc_node": 347.1709,
        "meta_arg_of_pericenter": 290.8341,
        "meta_mean_anomaly": 151.6458,
        "meta_ephemeris_type": 0,
        "meta_classification_type": "U",
        "meta_norad_cat_id": 38992,
        "meta_element_set_no": 999,
        "meta_rev_at_epoch": 4807,
        "meta_bstar": 0,
        "meta_mean_motion_dot": 1.51e-06,
        "meta_mean_motion_ddot": 0,
        "tle_line1": "1 38992U 12062B   25357.87614226  .00000151  00000+0  00000+0 0  9995",
        "tle_line2": "2 38992   0.0662 347.1709 0003250 290.8341 151.6458  1.00270573 48079"
      },
      "geometry": {
        "type": "Point",
        "coordinates": [
          -129.08136656384713,
          -0.07423735309466144
        ]
      }
    },
    {
      "type": "Feature",
      "properties": {
        "norad_id": 39020,
        "name": "EUTELSAT 70B",
        "group": "eutelsat",
        "lat": -0.07786129480315385,
        "lon": -80.11861793419644,
        "alt_km": 35769.83963492255,
        "timestamp": "2025-12-24T07:45:05.870071+00:00",
        "meta_object_name": "EUTELSAT 70B",
        "meta_object_id": "2012-069A",
        "meta_epoch": "2025-12-23T22:01:38.324352",
        "meta_mean_motion": 1.00271772,
        "meta_eccentricity": 0.00042598,
        "meta_inclination": 0.0627,
        "meta_ra_of_asc_node": 344.567,
        "meta_arg_of_pericenter": 269.5005,
        "meta_mean_anomaly": 239.5352,
        "meta_ephemeris_type": 0,
        "meta_classification_type": "U",
        "meta_norad_cat_id": 39020,
        "meta_element_set_no": 999,
        "meta_rev_at_epoch": 4775,
        "meta_bstar": 0,
        "meta_mean_motion_dot": -2.2e-07,
        "meta_mean_motion_ddot": 0,
        "tle_line1": "1 39020U 12069A   25357.91780468 -.00000022  00000+0  00000+0 0  9990",
        "tle_line2": "2 39020   0.0627 344.5670 0004259 269.5005 239.5352  1.00271772 47756"
      },
      "geometry": {
        "type": "Point",
        "coordinates": [
          -80.11861793419644,
          -0.07786129480315385
        ]
      }
    },
    {
      "type": "Feature",
      "properties": {
        "norad_id": 39122,
        "name": "EUTELSAT 117 WEST A",
        "group": "eutelsat",
        "lat": 0.030099972221432382,
        "lon": 92.57633951708611,
        "alt_km": 35797.687563594074,
        "timestamp": "2025-12-24T07:45:05.870083+00:00",
        "meta_object_name": "EUTELSAT 117 WEST A",
        "meta_object_id": "2013-012A",
        "meta_epoch": "2025-12-23T16:00:05.299200",
        "meta_mean_motion": 1.00270813,
        "meta_eccentricity": 0.00026851,
        "meta_inclination": 0.0226,
        "meta_ra_of_asc_node": 313.4585,
        "meta_arg_of_pericenter": 321.6945,
        "meta_mean_anomaly": 300.5313,
        "meta_ephemeris_type": 0,
        "meta_classification_type": "U",
        "meta_norad_cat_id": 39122,
        "meta_element_set_no": 999,
        "meta_rev_at_epoch": 4667,
        "meta_bstar": 0,
        "meta_mean_motion_dot": 8e-08,
        "meta_mean_motion_ddot": 0,
        "tle_line1": "1 39122U 13012A   25357.66672800  .00000008  00000+0  00000+0 0  9997",
        "tle_line2": "2 39122   0.0226 313.4585 0002685 321.6945 300.5313  1.00270813 46679"
      },
      "geometry": {
        "type": "Point",
        "coordinates": [
          92.57633951708611,
          0.030099972221432382
        ]
      }
    },
    {
      "type": "Feature",
      "properties": {
        "norad_id": 39163,
        "name": "EUTELSAT 7B",
        "group": "eutelsat",
        "lat": -0.042163136214986414,
        "lon": -143.68987773859718,
        "alt_km": 35791.34994417765,
        "timestamp": "2025-12-24T07:45:05.870096+00:00",
        "meta_object_name": "EUTELSAT 7B",
        "meta_object_id": "2013-022A",
        "meta_epoch": "2025-12-23T21:43:32.557152",
        "meta_mean_motion": 1.00271477,
        "meta_eccentricity": 0.00045213,
        "meta_inclination": 0.0654,
        "meta_ra_of_asc_node": 6.9021,
        "meta_arg_of_pericenter": 315.5375,
        "meta_mean_anomaly": 103.1266,
        "meta_ephemeris_type": 0,
        "meta_classification_type": "U",
        "meta_norad_cat_id": 39163,
        "meta_element_set_no": 999,
        "meta_rev_at_epoch": 4619,
        "meta_bstar": 0,
        "meta_mean_motion_dot": 6.9e-07,
        "meta_mean_motion_ddot": 0,
        "tle_line1": "1 39163U 13022A   25357.90523793  .00000069  00000+0  00000+0 0  9993",
        "tle_line2": "2 39163   0.0654   6.9021 0004521 315.5375 103.1266  1.00271477 46196"
      },
      "geometry": {
        "type": "Point",
        "coordinates": [
          -143.68987773859718,
          -0.042163136214986414
        ]
      }
    },
    {
      "type": "Feature",
      "properties": {
        "norad_id": 39612,
        "name": "EXPRESS-AT1",
        "group": "eutelsat",
        "lat": -0.016089597897217214,
        "lon": -94.62820001237947,
        "alt_km": 35789.411559152286,
        "timestamp": "2025-12-24T07:45:05.870108+00:00",
        "meta_object_name": "EXPRESS-AT1",
        "meta_object_id": "2014-010A",
        "meta_epoch": "2025-12-23T20:45:38.572128",
        "meta_mean_motion": 1.0027104,
        "meta_eccentricity": 9.385e-05,
        "meta_inclination": 0.0153,
        "meta_ra_of_asc_node": 287.9402,
        "meta_arg_of_pericenter": 194.834,
        "meta_mean_anomaly": 337.2835,
        "meta_ephemeris_type": 0,
        "meta_classification_type": "U",
        "meta_norad_cat_id": 39612,
        "meta_element_set_no": 999,
        "meta_rev_at_epoch": 4306,
        "meta_bstar": 0,
        "meta_mean_motion_dot": 1e-06,
        "meta_mean_motion_ddot": 0,
        "tle_line1": "1 39612U 14010A   25357.86502977  .00000100  00000+0  00000+0 0  9992",
        "tle_line2": "2 39612   0.0153 287.9402 0000938 194.8340 337.2835  1.00271040 43062"
      },
      "geometry": {
        "type": "Point",
        "coordinates": [
          -94.62820001237947,
          -0.016089597897217214
        ]
      }
    },
    {
      "type": "Feature",
      "properties": {
        "norad_id": 39613,
        "name": "EXPRESS-AT2",
        "group": "eutelsat",
        "lat": 0.0033651771591417076,
        "lon": -10.752592033761347,
        "alt_km": 35783.082122024876,
        "timestamp": "2025-12-24T07:45:05.870119+00:00",
        "meta_object_name": "EXPRESS-AT2",
        "meta_object_id": "2014-010B",
        "meta_epoch": "2025-12-23T22:21:28.924992",
        "meta_mean_motion": 1.00273151,
        "meta_eccentricity": 0.00015219,
        "meta_inclination": 0.0121,
        "meta_ra_of_asc_node": 303.6739,
        "meta_arg_of_pericenter": 340.0413,
        "meta_mean_anomaly": 284.2312,
        "meta_ephemeris_type": 0,
        "meta_classification_type": "U",
        "meta_norad_cat_id": 39613,
        "meta_element_set_no": 999,
        "meta_rev_at_epoch": 4274,
        "meta_bstar": 0,
        "meta_mean_motion_dot": -2.6e-06,
        "meta_mean_motion_ddot": 0,
        "tle_line1": "1 39613U 14010B   25357.93158478 -.00000260  00000+0  00000+0 0  9992",
        "tle_line2": "2 39613   0.0121 303.6739 0001521 340.0413 284.2312  1.00273151 42742"
      },
      "geometry": {
        "type": "Point",
        "coordinates": [
          -10.752592033761347,
          0.0033651771591417076
        ]
      }
    }
  ]
}